EUTELSAT QUANTUM        
1 49056U 21069B   25322.93447510  .00000145  00000+0  00000+0 0  9997
2 49056   0.0286  34.6622 0003061 220.4517 187.2399  1.00272250 15819
EUTELSAT KONNECT VHTS   
1 53765U 22110A   25322.80601918  .00000036  00000+0  00000+0 0  9996
2 53765   0.0570 101.8844 0002523 112.3616 136.7599  1.00270105  4716
EUTELSAT HOTBIRD 13F    
1 54048U 22134A   25322.23724289  .00000105  00000+0  00000+0 0  9998
2 54048   0.0526 288.6937 0002247  73.5060 153.7430  1.00272501 11266
EUTELSAT HOTBIRD 13G    
1 54225U 22146A   25322.80801252  .00000107  00000+0  00000+0 0  9999
2 54225   0.0469 241.4800 0002096 293.0402 187.4893  1.00271842  5353
EUTELSAT 10B            
1 54259U 22157A   25322.80749252  .00000088  00000+0  00000+0 0  9997
2 54259   0.0573  99.9241 0000854  34.3120 224.5549  1.00272034 10917
EUTELSAT 36D            
1 59346U 24059A   25322.86572512  .00000175  00000+0  00000+0 0  9998
2 59346   0.0137 286.4661 0000286  79.6303  39.5895  1.00271633  6038
